{
 "type": "FeatureCollection",
 "source": "Instituto Geográfico Nacional (IGN), Argentina — WFS https://wms.ign.gob.ar/geoserver/ows, capa ign:lineas_de_aguas_continentales_perenne, consultado 2026-10-08 desde GitHub Actions (scripts/names/fetch_ign.py). Atribución: «Fuente: Instituto Geográfico Nacional».",
 "features": [
  {
   "type": "Feature",
   "properties": {
    "gid": 629381,
    "entidad": 2,
    "objeto": "Corriente de agua",
    "fna": "Río Carapachay",
    "gna": "Río",
    "nam": "Carapachay",
    "sag": "IGN",
    "layer": "ign:lineas_de_aguas_continentales_perenne"
   },
   "geometry": {
    "type": "MultiLineString",
    "coordinates": [
     [
      [
       -58.59651184,
       -34.3844986
      ],
      [
       -58.59649658,
       -34.38565826
      ],
      [
       -58.59599304,
       -34.38656998
      ],
      [
       -58.5954895,
       -34.38758469
      ],
      [
       -58.59486008,
       -34.38870239
      ],
      [
       -58.59373474,
       -34.38980865
      ],
      [
       -58.59248733,
       -34.39122391
      ],
      [
       -58.59199142,
       -34.39173126
      ],
      [
       -58.59148025,
       -34.39305115
      ],
      [
       -58.59231949,
       -34.39403534
      ],
      [
       -58.59328842,
       -34.39516449
      ],
      [
       -58.59473801,
       -34.39660263
      ],
      [
       -58.59528351,
       -34.39726257
      ],
      [
       -58.59545898,
       -34.3976326
      ],
      [
       -58.5955162,
       -34.39787674
      ],
      [
       -58.59544754,
       -34.39837646
      ],
      [
       -58.595047,
       -34.39936829
      ],
      [
       -58.59494019,
       -34.3998642
      ],
      [
       -58.59516525,
       -34.40140152
      ],
      [
       -58.595047,
       -34.40160751
      ],
      [
       -58.59480286,
       -34.40187073
      ],
      [
       -58.59479141,
       -34.40200806
      ],
      [
       -58.59538269,
       -34.40365219
      ]
     ]
    ]
   }
  },
  {
   "type": "Feature",
   "properties": {
    "gid": 629335,
    "entidad": 2,
    "objeto": "Corriente de agua",
    "fna": "Río Carapachay",
    "gna": "Río",
    "nam": "Carapachay",
    "sag": "IGN",
    "layer": "ign:lineas_de_aguas_continentales_perenne"
   },
   "geometry": {
    "type": "MultiLineString",
    "coordinates": [
     [
      [
       -58.64457321,
       -34.32548523
      ],
      [
       -58.64445114,
       -34.32500839
      ],
      [
       -58.64336395,
       -34.32367706
      ],
      [
       -58.64276123,
       -34.32285309
      ],
      [
       -58.6425209,
       -34.32213592
      ],
      [
       -58.64241409,
       -34.32142639
      ],
      [
       -58.64242172,
       -34.32081222
      ],
      [
       -58.64156342,
       -34.32019424
      ],
      [
       -58.64170456,
       -34.31907654
      ],
      [
       -58.64233398,
       -34.318367
      ],
      [
       -58.64197159,
       -34.31764984
      ],
      [
       -58.64136887,
       -34.31703567
      ],
      [
       -58.63990784,
       -34.31569672
      ],
      [
       -58.63856888,
       -34.31507111
      ],
      [
       -58.63834381,
       -34.31364441
      ],
      [
       -58.63860702,
       -34.31252289
      ],
      [
       -58.63876343,
       -34.31007767
      ],
      [
       -58.63816452,
       -34.30864716
      ],
      [
       -58.63658524,
       -34.30750656
      ],
      [
       -58.63635635,
       -34.30638504
      ],
      [
       -58.635746,
       -34.30587387
      ],
      [
       -58.63552093,
       -34.30422592
      ],
      [
       -58.63492966,
       -34.30308914
      ],
      [
       -58.63483047,
       -34.3011589
      ],
      [
       -58.63473129,
       -34.29972839
      ],
      [
       -58.63486862,
       -34.29850769
      ],
      [
       -58.63537216,
       -34.29708481
      ],
      [
       -58.63513565,
       -34.29647446
      ],
      [
       -58.63490677,
       -34.29545975
      ],
      [
       -58.63430405,
       -34.29463196
      ],
      [
       -58.63383102,
       -34.29330063
      ],
      [
       -58.63384247,
       -34.2924881
      ],
      [
       -58.63385391,
       -34.29136658
      ],
      [
       -58.63386917,
       -34.29024124
      ],
      [
       -58.63425446,
       -34.28902435
      ],
      [
       -58.63463592,
       -34.28832245
      ],
      [
       -58.63452911,
       -34.2870903
      ],
      [
       -58.63355637,
       -34.28617096
      ],
      [
       -58.63331985,
       -34.2853508
      ],
      [
       -58.63284683,
       -34.28422165
      ],
      [
       -58.63384247,
       -34.28300476
      ],
      [
       -58.63435364,
       -34.28199387
      ],
      [
       -58.63338089,
       -34.28086853
      ],
      [
       -58.63474655,
       -34.27986145
      ],
      [
       -58.63523865,
       -34.27965927
      ],
      [
       -58.63634872,
       -34.27936172
      ],
      [
       -58.6372261,
       -34.27794266
      ],
      [
       -58.63834,
       -34.27703857
      ],
      [
       -58.63871765,
       -34.27622986
      ],
      [
       -58.63874054,
       -34.27500534
      ],
      [
       -58.63936233,
       -34.27399445
      ],
      [
       -58.6401062,
       -34.27307892
      ],
      [
       -58.64037323,
       -34.27206421
      ],
      [
       -58.6411171,
       -34.27125549
      ],
      [
       -58.64161682,
       -34.27054596
      ],
      [
       -58.64160684,
       -34.27051047
      ],
      [
       -58.64138412,
       -34.26971817
      ]
     ]
    ]
   }
  },
  {
   "type": "Feature",
   "properties": {
    "gid": 629372,
    "entidad": 2,
    "objeto": "Corriente de agua",
    "fna": "Río Carapachay",
    "gna": "Río",
    "nam": "Carapachay",
    "sag": "IGN",
    "layer": "ign:lineas_de_aguas_continentales_perenne"
   },
   "geometry": {
    "type": "MultiLineString",
    "coordinates": [
     [
      [
       -58.59651184,
       -34.3844986
      ],
      [
       -58.5982132,
       -34.38432693
      ],
      [
       -58.59994125,
       -34.38383865
      ],
      [
       -58.60166931,
       -34.38334274
      ],
      [
       -58.60327911,
       -34.38233948
      ],
      [
       -58.60439682,
       -34.38143158
      ],
      [
       -58.60611343,
       -34.38154983
      ],
      [
       -58.60758209,
       -34.38197327
      ],
      [
       -58.60941696,
       -34.38249969
      ],
      [
       -58.60990143,
       -34.38311386
      ],
      [
       -58.61161423,
       -34.38373947
      ],
      [
       -58.61233902,
       -34.38415527
      ],
      [
       -58.61357117,
       -34.38396454
      ],
      [
       -58.61406326,
       -34.38396835
      ],
      [
       -58.61493301,
       -34.38306045
      ],
      [
       -58.61679459,
       -34.38216019
      ],
      [
       -58.61852264,
       -34.38166428
      ],
      [
       -58.62036896,
       -34.38076782
      ],
      [
       -58.62148666,
       -34.37985992
      ],
      [
       -58.62138748,
       -34.37863922
      ],
      [
       -58.62152481,
       -34.3775177
      ],
      [
       -58.62178421,
       -34.37649918
      ],
      [
       -58.62265396,
       -34.37538528
      ],
      [
       -58.62425995,
       -34.37469101
      ],
      [
       -58.62636185,
       -34.37389374
      ],
      [
       -58.62772369,
       -34.37329483
      ],
      [
       -58.62883758,
       -34.37239075
      ],
      [
       -58.62958527,
       -34.37127304
      ],
      [
       -58.62985229,
       -34.37025452
      ],
      [
       -58.62985992,
       -34.36954117
      ],
      [
       -58.62963104,
       -34.36831665
      ],
      [
       -58.62902832,
       -34.36759949
      ],
      [
       -58.62916183,
       -34.36657715
      ],
      [
       -58.62917709,
       -34.36545944
      ],
      [
       -58.62919617,
       -34.36403274
      ],
      [
       -58.63033295,
       -34.36200714
      ],
      [
       -58.63058853,
       -34.36088943
      ],
      [
       -58.63109589,
       -34.35987472
      ],
      [
       -58.63025284,
       -34.35843658
      ],
      [
       -58.62965774,
       -34.35741043
      ],
      [
       -58.62991333,
       -34.35629654
      ],
      [
       -58.63041687,
       -34.35517883
      ],
      [
       -58.63202286,
       -34.35488892
      ],
      [
       -58.63435745,
       -34.35480881
      ],
      [
       -58.63596344,
       -34.35400772
      ],
      [
       -58.63695145,
       -34.35371017
      ],
      [
       -58.63745499,
       -34.35309982
      ],
      [
       -58.63733673,
       -34.3521843
      ],
      [
       -58.63723755,
       -34.35085678
      ],
      [
       -58.63724899,
       -34.34973907
      ],
      [
       -58.63787842,
       -34.34893036
      ],
      [
       -58.63764191,
       -34.34791183
      ],
      [
       -58.63753509,
       -34.34695816
      ],
      [
       -58.63766098,
       -34.34614181
      ],
      [
       -58.63928223,
       -34.34473419
      ],
      [
       -58.64014816,
       -34.34382248
      ],
      [
       -58.64040756,
       -34.34280777
      ],
      [
       -58.64006424,
       -34.34127808
      ],
      [
       -58.63922119,
       -34.34004593
      ],
      [
       -58.63923645,
       -34.33882523
      ],
      [
       -58.63949966,
       -34.33750153
      ],
      [
       -58.64060974,
       -34.33659363
      ],
      [
       -58.64197159,
       -34.33609772
      ],
      [
       -58.6439476,
       -34.33529663
      ],
      [
       -58.64457321,
       -34.33428574
      ],
      [
       -58.64531326,
       -34.33408737
      ],
      [
       -58.64654922,
       -34.33328628
      ],
      [
       -58.64754486,
       -34.33258438
      ],
      [
       -58.64792633,
       -34.33146286
      ],
      [
       -58.64683533,
       -34.33043671
      ],
      [
       -58.64611435,
       -34.32930374
      ],
      [
       -58.64624786,
       -34.32849121
      ],
      [
       -58.64601135,
       -34.32767105
      ],
      [
       -58.64541626,
       -34.32665253
      ],
      [
       -58.64468002,
       -34.32602692
      ],
      [
       -58.64457321,
       -34.32548523
      ]
     ]
    ]
   }
  }
 ]
}